{"type":"FeatureCollection","features":[{"type":"Feature","properties":{"name":"KELURAHAN","province":"JAWA TENGAH","district":"SEMARANG","sub_district":"JAMBU"},"geometry":{"type":"Polygon","coordinates":[[[110.366,-7.2868],[110.3659,-7.2866],[110.365,-7.2867],[110.3652,-7.2858],[110.3647,-7.2835],[110.3645,-7.2829],[110.3636,-7.283],[110.3631,-7.2831],[110.363,-7.2831],[110.3626,-7.2834],[110.3624,-7.2836],[110.3623,-7.2839],[110.3611,-7.2842],[110.3611,-7.2846],[110.3611,-7.2849],[110.3609,-7.285],[110.3606,-7.2851],[110.3605,-7.2857],[110.3606,-7.286],[110.3604,-7.2864],[110.3606,-7.2869],[110.3606,-7.2873],[110.3611,-7.2874],[110.3609,-7.2878],[110.3609,-7.2884],[110.3605,-7.2896],[110.3601,-7.2905],[110.3593,-7.2909],[110.3584,-7.2911],[110.3574,-7.2912],[110.3558,-7.2912],[110.3538,-7.2911],[110.3528,-7.2908],[110.3523,-7.2906],[110.3514,-7.2912],[110.3504,-7.2919],[110.3494,-7.2923],[110.347,-7.2932],[110.3454,-7.2936],[110.345,-7.2937],[110.3454,-7.294],[110.346,-7.2942],[110.3463,-7.2944],[110.3467,-7.2948],[110.3473,-7.2954],[110.3476,-7.2959],[110.3478,-7.296],[110.3481,-7.2964],[110.3484,-7.2966],[110.3493,-7.2972],[110.3497,-7.2975],[110.3502,-7.2979],[110.3507,-7.298],[110.3514,-7.2982],[110.3517,-7.2982],[110.3521,-7.2982],[110.3525,-7.2984],[110.3539,-7.2991],[110.3545,-7.2995],[110.355,-7.3],[110.3552,-7.3001],[110.3556,-7.3003],[110.356,-7.3004],[110.3597,-7.3032],[110.3603,-7.3037],[110.3607,-7.3044],[110.3605,-7.3056],[110.3629,-7.3079],[110.3637,-7.3101],[110.3637,-7.3104],[110.364,-7.3109],[110.3644,-7.3113],[110.365,-7.312],[110.3659,-7.3128],[110.3669,-7.314],[110.3673,-7.3145],[110.3678,-7.3151],[110.3679,-7.3152],[110.368,-7.3153],[110.3683,-7.3155],[110.3686,-7.3157],[110.3689,-7.3159],[110.3695,-7.3163],[110.37,-7.3167],[110.3705,-7.3171],[110.3706,-7.3172],[110.3709,-7.3174],[110.3714,-7.3177],[110.3717,-7.318],[110.3719,-7.3182],[110.3719,-7.3183],[110.372,-7.3186],[110.3721,-7.3187],[110.3721,-7.319],[110.3723,-7.3193],[110.3726,-7.3196],[110.3728,-7.3197],[110.3731,-7.3199],[110.3738,-7.3202],[110.374,-7.3203],[110.3744,-7.3204],[110.3748,-7.3205],[110.375,-7.3206],[110.3754,-7.3208],[110.3755,-7.321],[110.3756,-7.3211],[110.3757,-7.3213],[110.3759,-7.3216],[110.3761,-7.3219],[110.3763,-7.3221],[110.3764,-7.3222],[110.3767,-7.3223],[110.3768,-7.3224],[110.3769,-7.3225],[110.377,-7.3226],[110.3772,-7.3226],[110.3773,-7.3227],[110.3774,-7.3228],[110.3783,-7.3231],[110.3786,-7.3231],[110.3786,-7.3229],[110.3792,-7.3218],[110.3801,-7.3212],[110.3808,-7.3209],[110.3809,-7.3207],[110.3803,-7.3206],[110.3799,-7.3205],[110.3795,-7.3203],[110.3791,-7.3201],[110.379,-7.32],[110.3789,-7.3199],[110.3789,-7.3198],[110.3785,-7.3194],[110.3781,-7.319],[110.3778,-7.3189],[110.3775,-7.3188],[110.377,-7.3186],[110.3765,-7.3184],[110.3764,-7.3183],[110.3763,-7.3181],[110.3761,-7.318],[110.3758,-7.3177],[110.3757,-7.3176],[110.3755,-7.3175],[110.3754,-7.3174],[110.375,-7.317],[110.3749,-7.3169],[110.3747,-7.3166],[110.3744,-7.3162],[110.3743,-7.316],[110.3741,-7.3156],[110.374,-7.3155],[110.3739,-7.3154],[110.3737,-7.3152],[110.3736,-7.3147],[110.3735,-7.3146],[110.3734,-7.3144],[110.3732,-7.3141],[110.3732,-7.3139],[110.3731,-7.3137],[110.373,-7.3134],[110.3729,-7.3131],[110.3728,-7.3128],[110.3727,-7.3127],[110.3727,-7.3125],[110.3726,-7.3123],[110.3721,-7.3114],[110.3713,-7.3114],[110.3699,-7.3089],[110.3691,-7.3084],[110.3682,-7.3079],[110.368,-7.3079],[110.3667,-7.3067],[110.3659,-7.3057],[110.3648,-7.3045],[110.365,-7.304],[110.3655,-7.3038],[110.3668,-7.304],[110.3685,-7.3044],[110.3697,-7.304],[110.37,-7.3014],[110.3692,-7.2989],[110.3688,-7.2978],[110.3685,-7.297],[110.3682,-7.2955],[110.3675,-7.2947],[110.3672,-7.2939],[110.367,-7.2932],[110.367,-7.2924],[110.3669,-7.2916],[110.3667,-7.2911],[110.3668,-7.2905],[110.3667,-7.29],[110.3662,-7.2896],[110.3663,-7.289],[110.3663,-7.2876],[110.366,-7.2871],[110.366,-7.2868]]]}}]}